[{"OBJECT_NAME":"ONEWEB-0588","OBJECT_ID":"2023-004P","EPOCH":"2026-05-13T01:16:44.008032","MEAN_MOTION":13.18686292,"ECCENTRICITY":0.0001658,"INCLINATION":87.917,"RA_OF_ASC_NODE":342.4642,"ARG_OF_PERICENTER":103.2824,"MEAN_ANOMALY":256.8494,"EPHEMERIS_TYPE":0,"CLASSIFICATION_TYPE":"U","NORAD_CAT_ID":55153,"ELEMENT_SET_NO":999,"REV_AT_EPOCH":16506,"BSTAR":0.0001386,"MEAN_MOTION_DOT":6.8e-07,"MEAN_MOTION_DDOT":0.0},{"OBJECT_NAME":"ONEWEB-0598","OBJECT_ID":"2023-004Q","EPOCH":"2026-05-13T03:21:40.551552","MEAN_MOTION":13.11420442,"ECCENTRICITY":0.0001244,"INCLINATION":87.8915,"RA_OF_ASC_NODE":28.0403,"ARG_OF_PERICENTER":62.1433,"MEAN_ANOMALY":297.9821,"EPHEMERIS_TYPE":0,"CLASSIFICATION_TYPE":"U","NORAD_CAT_ID":55154,"ELEMENT_SET_NO":999,"REV_AT_EPOCH":16130,"BSTAR":0.00025621,"MEAN_MOTION_DOT":1.03e-06,"MEAN_MOTION_DDOT":0.0},{"OBJECT_NAME":"ONEWEB-0599","OBJECT_ID":"2023-004R","EPOCH":"2026-05-13T02:15:45.079200","MEAN_MOTION":13.17649832,"ECCENTRICITY":0.0001812,"INCLINATION":87.9166,"RA_OF_ASC_NODE":12.8413,"ARG_OF_PERICENTER":74.2915,"MEAN_ANOMALY":285.8417,"EPHEMERIS_TYPE":0,"CLASSIFICATION_TYPE":"U","NORAD_CAT_ID":55155,"ELEMENT_SET_NO":999,"REV_AT_EPOCH":16286,"BSTAR":0.00014522,"MEAN_MOTION_DOT":6.9e-07,"MEAN_MOTION_DDOT":0.0},{"OBJECT_NAME":"ONEWEB-0614","OBJECT_ID":"2023-004S","EPOCH":"2026-05-13T03:14:19.186656","MEAN_MOTION":13.11418953,"ECCENTRICITY":0.0001923,"INCLINATION":87.8918,"RA_OF_ASC_NODE":28.0498,"ARG_OF_PERICENTER":86.342,"MEAN_ANOMALY":273.7928,"EPHEMERIS_TYPE":0,"CLASSIFICATION_TYPE":"U","NORAD_CAT_ID":55156,"ELEMENT_SET_NO":999,"REV_AT_EPOCH":16124,"BSTAR":-0.00097883,"MEAN_MOTION_DOT":-3.34e-06,"MEAN_MOTION_DDOT":0.0},{"OBJECT_NAME":"ONEWEB-0616","OBJECT_ID":"2023-004T","EPOCH":"2026-05-13T03:16:30.258912","MEAN_MOTION":13.17648845,"ECCENTRICITY":0.0002302,"INCLINATION":87.9166,"RA_OF_ASC_NODE":12.8356,"ARG_OF_PERICENTER":59.5003,"MEAN_ANOMALY":300.6356,"EPHEMERIS_TYPE":0,"CLASSIFICATION_TYPE":"U","NORAD_CAT_ID":55157,"ELEMENT_SET_NO":999,"REV_AT_EPOCH":16308,"BSTAR":5.4181e-05,"MEAN_MOTION_DOT":3.4e-07,"MEAN_MOTION_DDOT":0.0},{"OBJECT_NAME":"ONEWEB-0617","OBJECT_ID":"2023-004U","EPOCH":"2026-05-12T23:17:28.999392","MEAN_MOTION":13.11416595,"ECCENTRICITY":0.0001841,"INCLINATION":87.8924,"RA_OF_ASC_NODE":28.0718,"ARG_OF_PERICENTER":93.9017,"MEAN_ANOMALY":266.2321,"EPHEMERIS_TYPE":0,"CLASSIFICATION_TYPE":"U","NORAD_CAT_ID":55158,"ELEMENT_SET_NO":999,"REV_AT_EPOCH":16124,"BSTAR":-0.0013335,"MEAN_MOTION_DOT":-4.6e-06,"MEAN_MOTION_DDOT":0.0},{"OBJECT_NAME":"ONEWEB-0618","OBJECT_ID":"2023-004V","EPOCH":"2026-05-12T20:56:36.006144","MEAN_MOTION":15.12854254,"ECCENTRICITY":0.001502,"INCLINATION":86.9133,"RA_OF_ASC_NODE":191.9635,"ARG_OF_PERICENTER":70.5282,"MEAN_ANOMALY":289.7579,"EPHEMERIS_TYPE":0,"CLASSIFICATION_TYPE":"U","NORAD_CAT_ID":55159,"ELEMENT_SET_NO":999,"REV_AT_EPOCH":17692,"BSTAR":0.00015108,"MEAN_MOTION_DOT":2.695e-05,"MEAN_MOTION_DDOT":0.0},{"OBJECT_NAME":"ONEWEB-0619","OBJECT_ID":"2023-004W","EPOCH":"2026-05-12T09:49:11.373024","MEAN_MOTION":13.17648003,"ECCENTRICITY":0.0002208,"INCLINATION":87.9176,"RA_OF_ASC_NODE":12.9581,"ARG_OF_PERICENTER":85.8216,"MEAN_ANOMALY":274.3167,"EPHEMERIS_TYPE":0,"CLASSIFICATION_TYPE":"U","NORAD_CAT_ID":55160,"ELEMENT_SET_NO":999,"REV_AT_EPOCH":16288,"BSTAR":6.8443e-05,"MEAN_MOTION_DOT":3.9e-07,"MEAN_MOTION_DDOT":0.0},{"OBJECT_NAME":"ONEWEB-0620","OBJECT_ID":"2023-004X","EPOCH":"2026-05-13T02:49:54.028416","MEAN_MOTION":13.11415494,"ECCENTRICITY":0.0001532,"INCLINATION":87.8919,"RA_OF_ASC_NODE":28.0528,"ARG_OF_PERICENTER":81.1103,"MEAN_ANOMALY":279.0198,"EPHEMERIS_TYPE":0,"CLASSIFICATION_TYPE":"U","NORAD_CAT_ID":55161,"ELEMENT_SET_NO":999,"REV_AT_EPOCH":16123,"BSTAR":-0.0013599,"MEAN_MOTION_DOT":-4.69e-06,"MEAN_MOTION_DDOT":0.0},{"OBJECT_NAME":"ONEWEB-0621","OBJECT_ID":"2023-004Y","EPOCH":"2026-05-13T03:28:58.064736","MEAN_MOTION":13.11417642,"ECCENTRICITY":0.0001968,"INCLINATION":87.8925,"RA_OF_ASC_NODE":28.0331,"ARG_OF_PERICENTER":86.4092,"MEAN_ANOMALY":273.7261,"EPHEMERIS_TYPE":0,"CLASSIFICATION_TYPE":"U","NORAD_CAT_ID":55162,"ELEMENT_SET_NO":999,"REV_AT_EPOCH":16121,"BSTAR":0.00023734,"MEAN_MOTION_DOT":9.7e-07,"MEAN_MOTION_DDOT":0.0},{"OBJECT_NAME":"ONEWEB-0622","OBJECT_ID":"2023-004Z","EPOCH":"2026-05-13T03:36:17.642880","MEAN_MOTION":13.11420053,"ECCENTRICITY":0.0001638,"INCLINATION":87.8925,"RA_OF_ASC_NODE":28.0341,"ARG_OF_PERICENTER":102.501,"MEAN_ANOMALY":257.6301,"EPHEMERIS_TYPE":0,"CLASSIFICATION_TYPE":"U","NORAD_CAT_ID":55163,"ELEMENT_SET_NO":999,"REV_AT_EPOCH":16120,"BSTAR":0.0016323,"MEAN_MOTION_DOT":5.91e-06,"MEAN_MOTION_DDOT":0.0},{"OBJECT_NAME":"ONEWEB-0623","OBJECT_ID":"2023-004AA","EPOCH":"2026-05-12T22:27:19.777248","MEAN_MOTION":13.17649419,"ECCENTRICITY":0.0002245,"INCLINATION":87.9162,"RA_OF_ASC_NODE":12.8881,"ARG_OF_PERICENTER":100.6532,"MEAN_ANOMALY":259.4853,"EPHEMERIS_TYPE":0,"CLASSIFICATION_TYPE":"U","NORAD_CAT_ID":55164,"ELEMENT_SET_NO":999,"REV_AT_EPOCH":16294,"BSTAR":-5.8819e-05,"MEAN_MOTION_DOT":-1e-07,"MEAN_MOTION_DDOT":0.0},{"OBJECT_NAME":"ONEWEB-0624","OBJECT_ID":"2023-004AB","EPOCH":"2026-05-13T01:30:02.481408","MEAN_MOTION":13.12927592,"ECCENTRICITY":0.0001847,"INCLINATION":87.8968,"RA_OF_ASC_NODE":357.5754,"ARG_OF_PERICENTER":88.406,"MEAN_ANOMALY":271.7281,"EPHEMERIS_TYPE":0,"CLASSIFICATION_TYPE":"U","NORAD_CAT_ID":55165,"ELEMENT_SET_NO":999,"REV_AT_EPOCH":16346,"BSTAR":0.0006592900000000001,"MEAN_MOTION_DOT":2.52e-06,"MEAN_MOTION_DDOT":0.0},{"OBJECT_NAME":"ONEWEB-0625","OBJECT_ID":"2023-004AC","EPOCH":"2026-05-12T22:12:45.601920","MEAN_MOTION":13.17648296,"ECCENTRICITY":0.0001939,"INCLINATION":87.9167,"RA_OF_ASC_NODE":12.8847,"ARG_OF_PERICENTER":78.4591,"MEAN_ANOMALY":281.6758,"EPHEMERIS_TYPE":0,"CLASSIFICATION_TYPE":"U","NORAD_CAT_ID":55166,"ELEMENT_SET_NO":999,"REV_AT_EPOCH":16293,"BSTAR":5.3149e-05,"MEAN_MOTION_DOT":3.4e-07,"MEAN_MOTION_DDOT":0.0},{"OBJECT_NAME":"ONEWEB-0626","OBJECT_ID":"2023-004AD","EPOCH":"2026-05-13T01:36:51.687360","MEAN_MOTION":13.17649437,"ECCENTRICITY":0.0001379,"INCLINATION":87.9166,"RA_OF_ASC_NODE":12.8564,"ARG_OF_PERICENTER":77.1962,"MEAN_ANOMALY":282.9324,"EPHEMERIS_TYPE":0,"CLASSIFICATION_TYPE":"U","NORAD_CAT_ID":55167,"ELEMENT_SET_NO":999,"REV_AT_EPOCH":16295,"BSTAR":-3.8487e-05,"MEAN_MOTION_DOT":-2e-08,"MEAN_MOTION_DDOT":0.0},{"OBJECT_NAME":"ONEWEB-0627","OBJECT_ID":"2023-004AE","EPOCH":"2026-05-13T03:09:12.501216","MEAN_MOTION":13.1765046,"ECCENTRICITY":0.000209,"INCLINATION":87.9166,"RA_OF_ASC_NODE":12.844,"ARG_OF_PERICENTER":95.7864,"MEAN_ANOMALY":264.3506,"EPHEMERIS_TYPE":0,"CLASSIFICATION_TYPE":"U","NORAD_CAT_ID":55168,"ELEMENT_SET_NO":999,"REV_AT_EPOCH":16296,"BSTAR":0.00019054,"MEAN_MOTION_DOT":8.7e-07,"MEAN_MOTION_DDOT":0.0}]