ONEWEB-0588             
1 55153U 23004P   26133.05328713  .00000068  00000+0  13860-3 0  9996
2 55153  87.9170 342.4642 0001658 103.2824 256.8494 13.18686292165060
ONEWEB-0598             
1 55154U 23004Q   26133.14005268  .00000103  00000+0  25621-3 0  9992
2 55154  87.8915  28.0403 0001244  62.1433 297.9821 13.11420442161308
ONEWEB-0599             
1 55155U 23004R   26133.09427175  .00000069  00000+0  14522-3 0  9991
2 55155  87.9166  12.8413 0001812  74.2915 285.8417 13.17649832162861
ONEWEB-0614             
1 55156U 23004S   26133.13494429 -.00000334  00000+0 -97883-3 0  9991
2 55156  87.8918  28.0498 0001923  86.3420 273.7928 13.11418953161242
ONEWEB-0616             
1 55157U 23004T   26133.13646133  .00000034  00000+0  54181-4 0  9993
2 55157  87.9166  12.8356 0002302  59.5003 300.6356 13.17648845163084
ONEWEB-0617             
1 55158U 23004U   26132.97047453 -.00000460  00000+0 -13335-2 0  9994
2 55158  87.8924  28.0718 0001841  93.9017 266.2321 13.11416595161245
ONEWEB-0618             
1 55159U 23004V   26132.87263896  .00002695  00000+0  15108-3 0  9996
2 55159  86.9133 191.9635 0015020  70.5282 289.7579 15.12854254176922
ONEWEB-0619             
1 55160U 23004W   26132.40915941  .00000039  00000+0  68443-4 0  9993
2 55160  87.9176  12.9581 0002208  85.8216 274.3167 13.17648003162883
ONEWEB-0620             
1 55161U 23004X   26133.11798644 -.00000469  00000+0 -13599-2 0  9991
2 55161  87.8919  28.0528 0001532  81.1103 279.0198 13.11415494161234
ONEWEB-0621             
1 55162U 23004Y   26133.14511649  .00000097  00000+0  23734-3 0  9991
2 55162  87.8925  28.0331 0001968  86.4092 273.7261 13.11417642161219
ONEWEB-0622             
1 55163U 23004Z   26133.15020420  .00000591  00000+0  16323-2 0  9999
2 55163  87.8925  28.0341 0001638 102.5010 257.6301 13.11420053161200
ONEWEB-0623             
1 55164U 23004AA  26132.93564557 -.00000010  00000+0 -58819-4 0  9995
2 55164  87.9162  12.8881 0002245 100.6532 259.4853 13.17649419162947
ONEWEB-0624             
1 55165U 23004AB  26133.06252872  .00000252  00000+0  65929-3 0  9990
2 55165  87.8968 357.5754 0001847  88.4060 271.7281 13.12927592163461
ONEWEB-0625             
1 55166U 23004AC  26132.92552780  .00000034  00000+0  53149-4 0  9996
2 55166  87.9167  12.8847 0001939  78.4591 281.6758 13.17648296162934
ONEWEB-0626             
1 55167U 23004AD  26133.06726490 -.00000002  00000+0 -38487-4 0  9999
2 55167  87.9166  12.8564 0001379  77.1962 282.9324 13.17649437162959
ONEWEB-0627             
1 55168U 23004AE  26133.13139469  .00000087  00000+0  19054-3 0  9991
2 55168  87.9166  12.8440 0002090  95.7864 264.3506 13.17650460162966
